satname,norad_id,inclination_deg,eccentricity,mean_motion_rev_per_day,perigee_km,apogee_km,l1,l2
STARLINK-1210,45207,53.0288,0.0009691,15.45026845,424.7001699492439,437.8982191815503,1 45207U 20012AF  25256.16276720  .00110224  00000+0  22716-2 0  9993,2 45207  53.0288  58.6821 0009691 214.0585 145.9800 15.45026845308992
STARLINK-1231,45212,53.053,0.0003756,15.08484089,538.232715834296,543.4302449567685,1 45212U 20012AL  25256.26483880  .00015823  00000+0  10197-2 0  9996,2 45212  53.0530 102.7718 0003756 135.0567 225.0728 15.08484089308336
STARLINK-1271,45217,53.053,0.0001455,15.06392199,546.22782528896,548.243108676852,1 45217U 20012AR  25255.84364031  .00000001  00000+0  18976-4 0  9997,2 45217  53.0530 104.9998 0001455  85.8473 274.2683 15.06392199308319
STARLINK-1191,45222,53.0544,0.000137,15.06396887,546.2723247918102,548.1698729108966,1 45222U 20012AW  25256.25093656  .00001151  00000+0  96185-4 0  9996,2 45222  53.0544  83.1714 0001370  94.0121 266.1025 15.06396887308657
STARLINK-1212,45223,53.0547,0.0001414,15.06392932,546.2539730758308,548.2124677741667,1 45223U 20012AX  25255.93770913  .00000053  00000+0  22489-4 0  9995,2 45223  53.0547  85.2332 0001414  90.4571 269.6581 15.06392932308605
STARLINK-1215,45225,53.0559,0.0001139,15.06395324,546.4370904087964,548.0146880749653,1 45225U 20012AZ  25256.22513371 -.00002184  00000+0 -12778-3 0  9991,2 45225  53.0559  83.2877 0001139 105.5607 254.5508 15.06395324308604
STARLINK-1217,45226,53.0463,0.0003341,15.83571342,318.11254950097737,322.5884788579515,1 45226U 20012BA  25256.25002315  .00255348  00000+0  11103-2 0  9996,2 45226  53.0463  38.6933 0003341 150.3161 105.2448 15.83571342  5932
STARLINK-1221,45227,53.071,0.0004472,15.34834046,458.3548210887002,464.4721150273308,1 45227U 20012BB  25256.09717586  .00010278  00000+0  31060-3 0  9998,2 45227  53.0710  26.6203 0004472 155.8548 204.2664 15.34834046309374
STARLINK-1222,45228,53.0545,0.0002583,15.06399587,545.4240058646155,549.0016415835526,1 45228U 20012BC  25256.25830499  .00000615  00000+0  60238-4 0  9990,2 45228  53.0545  83.1371 0002583  89.4368 270.6917 15.06399587308549
STARLINK-1226,45229,53.0535,0.0001816,15.06408502,545.9278620892264,548.4431392214638,1 45229U 20012BD  25256.22145195  .00002698  00000+0  19992-3 0  9993,2 45229  53.0535  83.3025 0001816  85.1482 274.9714 15.06408502308545
STARLINK-1227,45230,53.0553,0.0001376,15.06400323,546.2576401646193,548.163495815329,1 45230U 20012BE  25256.21775682  .00000680  00000+0  64540-4 0  9993,2 45230  53.0553  83.3191 0001376  92.4293 267.6854 15.06400323308663
STARLINK-1238,45233,53.0386,0.000156,15.91615496,296.72021955737637,298.80309993921855,1 45233U 20012BH  25256.25002315  .00383191  66813-4  11603-2 0  9996,2 45233  53.0386  55.2767 0001560 104.7886 125.8059 15.91615496  5947
STARLINK-1246,45235,53.0534,0.0001349,15.06396034,546.2894820235288,548.157944343945,1 45235U 20012BK  25256.03346775 -.00000788  00000+0 -34021-4 0  9997,2 45235  53.0534 124.1474 0001349  72.4672 287.6465 15.06396034308083
STARLINK-1247,45236,53.0415,0.0001205,15.90681132,299.5709191482056,301.1804407040672,1 45236U 20012BL  25256.25002315  .00383641  66283-4  12190-2 0  9992,2 45236  53.0415  35.1850 0001205 137.6591 114.5297 15.90681132  5945
STARLINK-1270,45237,53.0544,0.0001393,15.06392318,546.2703979280777,548.1998065957678,1 45237U 20012BM  25256.23619431  .00000120  00000+0  26953-4 0  9996,2 45237  53.0544  83.2372 0001393  91.0080 269.1069 15.06392318308656
STARLINK-1279,45360,53.055,0.0001493,15.06387363,546.2163284717553,548.2842491161891,1 45360U 20019A   25256.26107272 -.00000998  00000+0 -48118-4 0  9990,2 45360  53.0550 213.1255 0001493  90.6010 269.5150 15.06387363303398
STARLINK-1301,45361,53.0527,0.0001548,15.06397026,546.1486274671834,548.2927182026933,1 45361U 20019B   25256.18274128  .00000544  00000+0  55416-4 0  9991,2 45361  53.0527 223.4784 0001548  84.2465 275.8700 15.06397026303251
STARLINK-1306,45362,53.0522,0.0008065,15.53966985,399.686413113679,410.62786656123626,1 45362U 20019C   25256.19363570  .00124858  00000+0  18751-2 0  9997,2 45362  53.0522 229.6336 0008065  43.7886 316.3762 15.53966985303163
STARLINK-1262,45366,53.0552,0.0001698,15.0640617,546.0167268672612,548.3685688156684,1 45366U 20019G   25255.68328431  .00001980  00000+0  15177-3 0  9991,2 45366  53.0552 245.7175 0001698  86.9385 273.1798 15.06406170302901
STARLINK-1273,45367,53.0513,0.0001336,15.06398308,546.2915164192846,548.1419709395959,1 45367U 20019H   25256.23618781  .00000972  00000+0  84151-4 0  9993,2 45367  53.0513 243.2415 0001336  89.8373 270.2769 15.06398308302984
STARLINK-1276,45368,53.0538,0.0001299,15.06394913,546.3275441015467,548.1267537074318,1 45368U 20019J   25256.27304676 -.00000044  00000+0  15931-4 0  9994,2 45368  53.0538 243.0745 0001299  85.4540 274.6598 15.06394913302999
STARLINK-1277,45369,53.0528,0.0001525,15.06405304,546.1391888138378,548.2514151659443,1 45369U 20019K   25256.26575841  .00000839  00000+0  75186-4 0  9997,2 45369  53.0528 243.7357 0001525  84.6167 275.4996 15.06405304302980
STARLINK-1281,45370,53.0541,0.0001273,15.06389187,546.3630973339468,548.1262995143661,1 45370U 20019L   25256.26200541  .00001730  00000+0  13506-3 0  9999,2 45370  53.0541 243.1238 0001273  87.2201 272.8934 15.06389187302991
STARLINK-1300,45374,53.0533,0.0001414,15.06400212,546.2316639946703,548.1901523831048,1 45374U 20019Q   25255.68697803  .00000642  00000+0  61963-4 0  9991,2 45374  53.0533 245.7028 0001414  89.6066 270.5085 15.06400212302909
STARLINK-1302,45375,53.0532,0.0001338,15.06395153,546.2997997103093,548.1530269597179,1 45375U 20019R   25256.23250194  .00001287  00000+0  10526-3 0  9996,2 45375  53.0532 243.2566 0001338  83.4668 276.6474 15.06395153302988
STARLINK-1304,45376,53.0524,0.0001436,15.06383125,546.268790385745,548.2577653455483,1 45376U 20019S   25256.25093131  .00001472  00000+0  11776-3 0  9999,2 45376  53.0524 243.1756 0001436  92.8698 267.2455 15.06383125302987
STARLINK-1305,45377,53.0556,0.0001104,15.06397851,546.4535851136616,547.9827035295275,1 45377U 20019T   25255.67960156 -.00003720  00000+0 -23098-3 0  9995,2 45377  53.0556 245.7359 0001104  80.9519 279.1595 15.06397851302902
STARLINK-1319,45379,53.0541,0.000141,15.06401164,546.2315168045689,548.1844640918744,1 45379U 20019V   25256.26936275 -.00000294  00000+0 -86764-6 0  9993,2 45379  53.0541 243.0919 0001410  91.9297 268.1853 15.06401164302993
STARLINK-1258,45381,53.0448,0.0006952,15.95380521,282.6205340228589,291.8880941059342,1 45381U 20019X   25256.25002315  .00395632  73643-4  97918-3 0  9993,2 45381  53.0448 173.1790 0006952 111.1920  87.9087 15.95380521  6051
STARLINK-1266,45383,53.054,0.0001479,15.0639839,546.1922325792693,548.2407521423102,1 45383U 20019Z   25256.20486048  .00000289  00000+0  38287-4 0  9997,2 45383  53.0540 223.3813 0001479  88.0834 272.0324 15.06398390303253
STARLINK-1267,45384,53.0546,0.0001468,15.06392564,546.2177037871161,548.2509928149766,1 45384U 20019AA  25256.19019797 -.00000929  00000+0 -43458-4 0  9998,2 45384  53.0546 224.1029 0001468  91.6178 268.4980 15.06392564303240
STARLINK-1272,45386,53.0554,0.0001202,15.06392739,546.4013823752939,548.066241518487,1 45386U 20019AC  25256.19748417 -.00001186  00000+0 -60768-4 0  9997,2 45386  53.0554 223.4145 0001202  92.1753 267.9374 15.06392739303259
STARLINK-1274,45387,53.0357,0.0008582,15.23889995,488.2228168239426,500.01835974847745,1 45387U 20019AD  25256.26873588  .00019841  00000+0  82215-3 0  9999,2 45387  53.0357 215.2145 0008582  40.9451 319.2188 15.23889995303375
STARLINK-1280,45388,53.0528,0.0001218,15.06395792,546.3809458570322,548.0679639074415,1 45388U 20019AE  25256.25461747 -.00000169  00000+0  75383-5 0  9993,2 45388  53.0528 243.1572 0001218  80.1041 280.0086 15.06395792302975
STARLINK-1283,45389,53.0545,0.000119,15.06399786,546.3880972610896,548.0363303739778,1 45389U 20019AF  25256.16800813  .00001252  00000+0  10291-3 0  9993,2 45389  53.0545 223.5451 0001190  88.7322 271.3803 15.06399786303257
STARLINK-1284,45390,53.0534,0.0001724,15.06383293,546.0688240411437,548.4567018794123,1 45390U 20019AG  25255.94315933  .00002144  00000+0  16289-3 0  9998,2 45390  53.0534 224.5546 0001724  92.7362 267.3824 15.06383293303215
STARLINK-1292,45394,53.0502,0.0004455,15.6999626,355.90635492589354,361.90906176102817,1 45394U 20019AL  25256.25002315  .00219062  00000+0  17442-2 0  9994,2 45394  53.0502 199.0903 0004455 108.7581  64.9942 15.69996260  6004
STARLINK-1297,45395,53.0553,0.0001019,15.0639596,546.5182457042993,547.9296342638681,1 45395U 20019AM  25256.17905980  .00000899  00000+0  79212-4 0  9997,2 45395  53.0553 223.4952 0001019  77.6164 282.4939 15.06395960302431
STARLINK-1307,45397,53.0554,0.0001972,15.0640353,545.8350624156838,548.5664156199518,1 45397U 20019AP  25256.17167671 -.00001786  00000+0 -10104-3 0  9998,2 45397  53.0554 223.5272 0001972  86.0259 274.0955 15.06403530303076
STARLINK-1312,45398,53.0499,0.0011436,15.67633978,357.96186356244016,373.38630827815814,1 45398U 20019AQ  25256.25002315  .00234854  00000+0  20508-2 0  9991,2 45398  53.0499 198.3841 0011436  50.9568  47.4150 15.67633978  6005
STARLINK-1255,45399,53.0548,0.00012,15.06398711,546.3844662394195,548.0465508414691,1 45399U 20019AR  25256.13945186  .00000468  00000+0  50291-4 0  9997,2 45399  53.0548 213.6750 0001200  95.4611 264.6515 15.06398711303196
STARLINK-1259,45403,53.0483,0.0010692,15.79479737,324.73932178232644,339.08809421631213,1 45403U 20019AV  25256.25002315  .00184263  00000+0  97422-3 0  9996,2 45403  53.0483 181.1148 0010692  58.0559  81.6675 15.79479737  5934
STARLINK-1260,45404,53.0557,0.0001546,15.06397809,546.1476131206409,548.2889329710661,1 45404U 20019AW  25256.17260088 -.00000186  00000+0  64080-5 0  9999,2 45404  53.0557 213.5258 0001546  92.2210 267.8956 15.06397809303100
